STARLINK-31787          
1 59650U 24082V   24145.91667824 -.01745308  00000+0 -21298-1 0  9992
2 59650  42.9992 263.6698 0001769 270.0634 309.6100 15.62532337  4658
STARLINK-31277          
1 59651U 24082W   24145.91667824 -.01745268  00000+0 -21290-1 0  9990
2 59651  42.9993 263.6853 0001558 272.8587 300.9353 15.62543268  4655
STARLINK-31799          
1 59652U 24082X   24145.91667824 -.01747454  00000+0 -21335-1 0  9990
2 59652  42.9992 263.6597 0001574 274.9068 308.6882 15.62525068  4509
STARLINK-31764          
1 59653U 24082Y   24145.91667824 -.01750519  00000+0 -21376-1 0  9992
2 59653  42.9992 263.6553 0001758 277.0010 308.5519 15.62524255  4678
STARLINK-31589          
1 59654U 24084A   24145.91667824 -.01719275  00000+0 -22769-1 0  9996
2 59654  42.9987 164.7076 0001711 259.6417  51.1076 15.60397100  4090
STARLINK-31665          
1 59655U 24084B   24145.91667824 -.01712947  00000+0 -22710-1 0  9992
2 59655  42.9989 164.6986 0001648 260.6740  52.3181 15.60358493  4049
STARLINK-31912          
1 59656U 24084C   24145.91667824 -.01712943  00000+0 -22758-1 0  9991
2 59656  42.9988 164.6911 0001575 255.9208  59.4912 15.60304656  4033
STARLINK-31904          
1 59657U 24084D   24145.91667824 -.01712753  00000+0 -22816-1 0  9996
2 59657  42.9993 164.6815 0001675 251.7410  66.2452 15.60234814  3990
STARLINK-31858          
1 59658U 24084E   24145.91667824 -.01712467  00000+0 -22940-1 0  9997
2 59658  43.0006 164.6590 0001798 255.4004  71.6004 15.60088821  4038
STARLINK-31881          
1 59659U 24084F   24145.91667824 -.01708719  00000+0 -22758-1 0  9990
2 59659  43.0001 164.6739 0001742 256.5518  63.3540 15.60231997  4037
STARLINK-31885          
1 59660U 24084G   24145.91667824 -.01707933  00000+0 -22795-1 0  9990
2 59660  43.0005 164.6709 0001633 262.6113  59.7099 15.60177831  4032
STARLINK-31880          
1 59661U 24084H   24145.91667824 -.01708175  00000+0 -22811-1 0  9999
2 59661  42.9992 164.6632 0001770 257.1771  67.2036 15.60162460  4039
STARLINK-31886          
1 59662U 24084J   24145.91667824 -.01717366  00000+0 -23057-1 0  9995
2 59662  43.0005 164.6493 0001617 249.3760  80.0140 15.60041463  4031
STARLINK-31909          
1 59663U 24084K   24145.91667824 -.01717604  00000+0 -22773-1 0  9995
2 59663  43.0006 164.4606 0001688 270.5407 146.0300 15.60364851  4039
STARLINK-31910          
1 59664U 24084L   24145.91667824 -.01713111  00000+0 -23147-1 0  9991
2 59664  43.0006 164.6433 0001741 256.0085  76.8351 15.59867828  4037
STARLINK-31894          
1 59665U 24084M   24145.91667824 -.01711925  00000+0 -23186-1 0  9996
2 59665  42.9994 164.6362 0001706 257.9469  77.3698 15.59804515  4034
STARLINK-31902          
1 59666U 24084N   24145.91667824 -.01712862  00000+0 -23243-1 0  9992
2 59666  43.0003 164.6302 0001819 255.2454  82.4325 15.59755643  4033
STARLINK-31913          
1 59667U 24084P   24145.91667824 -.02256253  00000+0 -30350-1 0  9998
2 59667  43.0006 164.6268 0001654 247.9866  92.1824 15.60346899  4033
STARLINK-31866          
1 59668U 24084Q   24145.91667824 -.01714126  00000+0 -23462-1 0  9992
2 59668  42.9991 164.6090 0001798 258.8873  86.4844 15.59533901  4102
STARLINK-31917          
1 59669U 24084R   24145.91667824 -.01713195  00000+0 -23289-1 0  9995
2 59669  43.0007 164.6205 0001703 255.5701  86.3340 15.59711149  4035
STARLINK-31860          
1 59670U 24084S   24145.91667824 -.01709740  00000+0 -23470-1 0  9990
2 59670  43.0006 164.5972 0001726 260.9804  88.9154 15.59451523  4033
STARLINK-31854          
1 59671U 24084T   24145.91667824 -.01698253  00000+0 -19351-1 0  9990
2 59671  43.0004 164.1536 0001546 261.7024 274.4255 15.64686903  4039
STARLINK-31842          
1 59672U 24084U   24145.91667824 -.01713024  00000+0 -23496-1 0  9990
2 59672  42.9994 164.6054 0001711 256.4106  91.3554 15.59478503  4039
STARLINK-31871          
1 59673U 24084V   24145.91667824 -.01713675  00000+0 -23541-1 0  9994
2 59673  43.0001 164.5935 0001801 257.7803  94.1577 15.59438956  4108
STARLINK-31875          
1 59674U 24084W   24145.91667824 -.01709643  00000+0 -23529-1 0  9991
2 59674  42.9993 164.5852 0001712 260.9906  93.3059 15.59384732  4104
STARLINK-31877          
1 59675U 24084X   24145.91667824 -.01711689  00000+0 -23584-1 0  9996
2 59675  42.9995 164.5785 0001719 259.7609  96.6817 15.59358661  4037
STARLINK-31884          
1 59676U 24084Y   24145.91667824 -.01693606  00000+0 -18416-1 0  9993
2 59676  43.0005 164.1671 0001484 259.5203 271.6504 15.65834493  4104
2024-085A               
1 59677U 24085A   24145.93993908  .00032943  00000+0  14199-2 0  9995
2 59677  97.4048 220.5023 0014231 200.6978 159.3684 15.22403556  2703
2024-085B               
1 59678U 24085B   24145.93466382  .00021183  00000+0  91034-3 0  9995
2 59678  97.4103 220.5220 0015067 211.1907 148.8437 15.22586131  2702
2024-085C               
1 59679U 24085C   24145.94260917  .00012251  00000+0  54246-3 0  9993
2 59679  97.4050 220.4993 0014448 200.7348 159.3304 15.21698081  2702
2024-085D               
1 59680U 24085D   24145.94384193  .00015856  00000+0  70151-3 0  9995
2 59680  97.4051 220.4977 0014140 198.4399 161.6326 15.21668802  2703
2024-085E               
1 59681U 24085E   24145.93116816  .00015696  00000+0  45621-3 0  9996
2 59681  97.3739 220.7679 0055063 290.7210  68.8136 15.34014014  2728
STARLINK-32108          
1 59682U 24086A   24145.91667824  .00165133  00000+0  13290-2 0  9994
2 59682  42.9992 187.0546 0000800 323.6305 324.0294 15.69656609  3671
STARLINK-32080          
1 59683U 24086B   24145.91667824  .00150737  00000+0  12928-2 0  9996
2 59683  42.9990 187.1237 0000580  62.0506 197.2368 15.68161986  3670
STARLINK-32091          
1 59684U 24086C   24145.91667824  .00024637  00000+0  42488-3 0  9991
2 59684  42.9995 187.6686 0001436 268.6368 127.9695 15.50549946  3669
STARLINK-32085          
1 59685U 24086D   24145.91667824  .00012619  00000+0  22084-3 0  9999
2 59685  42.9995 187.6648 0001340 263.7179 134.8010 15.50543485  3703
STARLINK-32100          
1 59686U 24086E   24145.91667824  .00197987  00000+0  12680-2 0  9992
2 59686  42.9986 186.7978 0001529 349.4515  41.8337 15.74929445  3704
STARLINK-32089          
1 59687U 24086F   24145.91667824  .00039126  00000+0  67030-3 0  9993
2 59687  42.9995 187.6553 0001442 267.4086 134.9424 15.50541915  3662
STARLINK-32103          
1 59688U 24086G   24145.91667824 -.02175454  00000+0 -46972-1 0  9993
2 59688  42.9996 187.6595 0001599 269.8750 130.4645 15.47397333  3662
STARLINK-32105          
1 59689U 24086H   24145.91667824 -.00003887  00000+0 -60506-4 0  9994
2 59689  42.9996 187.6453 0001374 266.2515 139.9341 15.50563375  3669
STARLINK-32106          
1 59690U 24086J   24145.91667824 -.02177217  00000+0 -45570-1 0  9998
2 59690  42.9996 187.6419 0001618 268.9692 138.9854 15.48282480  3669
STARLINK-32090          
1 59691U 24086K   24145.91667824 -.00000124  00000+0  37097-5 0  9997
2 59691  42.9996 187.6412 0000793 251.8767 156.2241 15.50564292  3558
STARLINK-32095          
1 59692U 24086L   24145.91667824  .00105019  00000+0  11968-2 0  9992
2 59692  42.9990 187.3764 0000538  64.1858  92.2435 15.61181235  3674
STARLINK-32088          
1 59693U 24086M   24145.91667824 -.02001211  00000+0 -37665-1 0  9997
2 59693  42.9995 187.6263 0001610 276.8533 136.9316 15.50960690  3662
STARLINK-32107          
1 59694U 24086N   24145.91667824  .00034076  00000+0  58482-3 0  9991
2 59694  42.9995 187.6209 0001441 268.0592 147.7046 15.50546490  3504
STARLINK-32104          
1 59695U 24086P   24145.91667824 -.00003598  00000+0 -55561-4 0  9995
2 59695  42.9996 187.6170 0001492 268.0684 149.6118 15.50565138  3669
STARLINK-32094          
1 59696U 24086Q   24145.91667824 -.00030378  00000+0 -51364-3 0  9998
2 59696  42.9994 187.2152 0002191 259.8918 320.7245 15.50596061  3469
STARLINK-32099          
1 59697U 24086R   24145.91667824  .00044398  00000+0  75942-3 0  9992
2 59697  42.9995 187.6069 0001641 263.4504 158.0741 15.50538244  3667
STARLINK-32096          
1 59698U 24086S   24145.91667824 -.00009140  00000+0 -15019-3 0  9990
2 59698  42.9995 187.5975 0001371 266.2466 159.0907 15.50571379  3662
STARLINK-32102          
1 59699U 24086T   24145.91667824  .00039226  00000+0  67189-3 0  9992
2 59699  42.9995 187.6014 0001505 252.9562 170.4810 15.50545795  3502
STARLINK-32092          
1 59700U 24086U   24145.91667824  .00028177  00000+0  48491-3 0  9993
2 59700  42.9994 187.5827 0001511 259.5512 171.5475 15.50547859  3669
STARLINK-32093          
1 59701U 24086V   24145.91667824  .00006930  00000+0  12392-3 0  9998
2 59701  42.9994 187.5916 0001033 272.5363 154.7223 15.50562102  3669
STARLINK-32087          
1 59702U 24086W   24145.91667824  .00025526  00000+0  43993-3 0  9992
2 59702  42.9995 187.5743 0001559 262.4977 172.4222 15.50552195  3501
STARLINK-32086          
1 59703U 24086X   24145.91667824 -.00244714  00000+0 -42848-2 0  9994
2 59703  42.9994 187.5881 0001415 269.7102 159.4406 15.50659010  3609
STARLINK-32098          
1 59704U 24086Y   24145.91667824  .00008325  00000+0  14768-3 0  9990
2 59704  42.9995 187.5782 0001209 272.0834 160.9266 15.50559394  3606
CZ-3B R/B               
1 59707U 24087C   24145.25522859  .00036277  00000+0  13647-2 0  9990
2 59707  53.1974 195.2129 6091809 230.4503  57.8003  3.97227132   681
STARLINK-11107 [DTC]    
1 59708U 24088A   24145.91667824 -.00421939  00000+0 -18707-2 0  9994
2 59708  53.1650 311.3240 0000267  93.7253 145.3703 15.84691241  3455
STARLINK-11088 [DTC]    
1 59709U 24088B   24145.91667824 -.00121752  00000+0 -53762-3 0  9996
2 59709  53.1654 311.3111 0000685  28.9957 216.2760 15.83976209  3452
